[{"OBJECT_NAME":"GEOSCAN 4 (RS92S4)","OBJECT_ID":"2025-155S","EPOCH":"2026-03-09T21:50:07.724832","MEAN_MOTION":15.30369837,"ECCENTRICITY":0.00070968,"INCLINATION":97.4465,"RA_OF_ASC_NODE":37.7626,"ARG_OF_PERICENTER":154.7045,"MEAN_ANOMALY":205.4544,"EPHEMERIS_TYPE":0,"CLASSIFICATION_TYPE":"U","NORAD_CAT_ID":64892,"ELEMENT_SET_NO":999,"REV_AT_EPOCH":6562,"BSTAR":0.00068609503,"MEAN_MOTION_DOT":0.00020121,"MEAN_MOTION_DDOT":0},{"OBJECT_NAME":"STARLINK-36153","OBJECT_ID":"2025-286K","EPOCH":"2026-03-09T23:28:22.105632","MEAN_MOTION":15.30246946,"ECCENTRICITY":0.0001137,"INCLINATION":53.1615,"RA_OF_ASC_NODE":356.9192,"ARG_OF_PERICENTER":140.1263,"MEAN_ANOMALY":219.9822,"EPHEMERIS_TYPE":0,"CLASSIFICATION_TYPE":"U","NORAD_CAT_ID":66934,"ELEMENT_SET_NO":999,"REV_AT_EPOCH":1546,"BSTAR":0.001059716,"MEAN_MOTION_DOT":0.00031204,"MEAN_MOTION_DDOT":0}]
